OBJECT B                
1 51825U 22019B   25191.78519104  .00010978  00000+0  26336-3 0  9995
2 51825  97.3850 268.7559 0008225 298.3438  61.6979 15.41524864186701
